ORBCOMM FM33            
1 25983U 99065D   25137.49683158  .00000982  00000+0  35411-3 0  9993
2 25983  45.0270 144.8628 0010609 271.3627  88.6007 14.39941000331641
ORBCOMM FM36            
1 25984U 99065E   25137.56058444  .00001392  00000+0  50210-3 0  9996
2 25984  45.0389 236.0274 0003955 178.5837 181.5023 14.38058812330011
ORBCOMM FM35            
1 25985U 99065F   25137.58793247  .00001138  00000+0  42760-3 0  9995
2 25985  45.0392 240.6897 0005431 236.9858 123.0469 14.37039256330386
ORBCOMM FM34            
1 25986U 99065G   25137.55451314  .00001003  00000+0  38228-3 0  9994
2 25986  45.0386 241.3239 0005442 201.3735 158.6887 14.37068399330490
ORBCOMM FM38            
1 33060U 08031A   25137.58758940  .00002616  00000+0  35956-3 0  9993
2 33060  48.4390 101.0597 0005500 270.4613  89.5672 14.81210581910219
ORBCOMM FM41            
1 33061U 08031B   25137.33351848  .00002231  00000+0  31363-3 0  9994
2 33061  48.4433 109.9430 0004645 256.1887 216.6926 14.80796764909667
ORBCOMM FM29            
1 33062U 08031C   25137.32736950  .00002253  00000+0  31575-3 0  9994
2 33062  48.4383 117.8193 0006365 254.4634 258.3712 14.80895652909570
ORBCOMM FM39            
1 33063U 08031D   25137.50206219  .00001548  00000+0  23314-3 0  9993
2 33063  48.4392 140.9256 0007119 228.6480 131.3823 14.79464334909253
